[{"OBJECT_NAME":"CUTE-1.7+APD II (CO-65)","OBJECT_ID":"2008-021C","EPOCH":"2026-03-09T21:54:04.726080","MEAN_MOTION":15.08376872,"ECCENTRICITY":0.00096053,"INCLINATION":97.8207,"RA_OF_ASC_NODE":48.3884,"ARG_OF_PERICENTER":18.7003,"MEAN_ANOMALY":341.4575,"EPHEMERIS_TYPE":0,"CLASSIFICATION_TYPE":"U","NORAD_CAT_ID":32785,"ELEMENT_SET_NO":999,"REV_AT_EPOCH":97022,"BSTAR":0.00047295391,"MEAN_MOTION_DOT":7.295e-5,"MEAN_MOTION_DDOT":0},{"OBJECT_NAME":"STARLINK-3190","OBJECT_ID":"2021-115AU","EPOCH":"2026-03-09T10:56:56.337504","MEAN_MOTION":15.08838372,"ECCENTRICITY":0.00013901,"INCLINATION":53.2153,"RA_OF_ASC_NODE":140.1784,"ARG_OF_PERICENTER":86.6291,"MEAN_ANOMALY":273.486,"EPHEMERIS_TYPE":0,"CLASSIFICATION_TYPE":"U","NORAD_CAT_ID":49766,"ELEMENT_SET_NO":999,"REV_AT_EPOCH":23564,"BSTAR":-5.2807671e-5,"MEAN_MOTION_DOT":-1.128e-5,"MEAN_MOTION_DDOT":0}]
